[{"OBJECT_NAME":"HULIANWANG DIGUI-101","OBJECT_ID":"2025-258F","EPOCH":"2026-03-09T21:38:49.258464","MEAN_MOTION":13.29333131,"ECCENTRICITY":4.229e-5,"INCLINATION":49.9998,"RA_OF_ASC_NODE":291.751,"ARG_OF_PERICENTER":101.7785,"MEAN_ANOMALY":258.3135,"EPHEMERIS_TYPE":0,"CLASSIFICATION_TYPE":"U","NORAD_CAT_ID":66417,"ELEMENT_SET_NO":999,"REV_AT_EPOCH":1653,"BSTAR":0.00013234226,"MEAN_MOTION_DOT":-6.3e-7,"MEAN_MOTION_DDOT":0},{"OBJECT_NAME":"DELTA 1 DEB","OBJECT_ID":"1975-052FE","EPOCH":"2026-03-09T10:44:01.855680","MEAN_MOTION":13.49960616,"ECCENTRICITY":0.00995246,"INCLINATION":99.704,"RA_OF_ASC_NODE":238.2722,"ARG_OF_PERICENTER":154.0128,"MEAN_ANOMALY":264.8531,"EPHEMERIS_TYPE":0,"CLASSIFICATION_TYPE":"U","NORAD_CAT_ID":21470,"ELEMENT_SET_NO":999,"REV_AT_EPOCH":71339,"BSTAR":0.00043110125,"MEAN_MOTION_DOT":2.4e-6,"MEAN_MOTION_DDOT":0}]
